{
  "type": "FeatureCollection",
  "features": [
    {
      "type": "Feature",
      "properties": {
        "norad_id": 34299,
        "name": "COSMOS 2251 DEB",
        "group": "cosmos-2251-debris",
        "lat": 73.93888514148729,
        "lon": 42.75807160621887,
        "alt_km": 272.52172704462737,
        "timestamp": "2025-12-20T22:39:11.018928+00:00",
        "meta_object_name": "COSMOS 2251 DEB",
        "meta_object_id": "1993-036MV",
        "meta_epoch": "2025-12-20T14:45:08.200800",
        "meta_mean_motion": 15.93932603,
        "meta_eccentricity": 0.00110768,
        "meta_inclination": 73.9685,
        "meta_ra_of_asc_node": 316.3411,
        "meta_arg_of_pericenter": 95.9955,
        "meta_mean_anomaly": 264.2543,
        "meta_ephemeris_type": 0,
        "meta_classification_type": "U",
        "meta_norad_cat_id": 34299,
        "meta_element_set_no": 999,
        "meta_rev_at_epoch": 89135,
        "meta_bstar": 0.005837015,
        "meta_mean_motion_dot": 0.02072373,
        "meta_mean_motion_ddot": 0.002610916,
        "tle_line1": "1 34299U 93036MV  25354.61467825  .02072373  26109-2  58370-2 0  9995",
        "tle_line2": "2 34299  73.9685 316.3411 0011076  95.9955 264.2543 15.93932603891356"
      },
      "geometry": {
        "type": "Point",
        "coordinates": [
          42.75807160621887,
          73.93888514148729
        ]
      }
    },
    {
      "type": "Feature",
      "properties": {
        "norad_id": 34301,
        "name": "COSMOS 2251 DEB",
        "group": "cosmos-2251-debris",
        "lat": 43.03822916896389,
        "lon": -45.14433611618954,
        "alt_km": 608.3729732887978,
        "timestamp": "2025-12-20T22:39:11.018937+00:00",
        "meta_object_name": "COSMOS 2251 DEB",
        "meta_object_id": "1993-036MX",
        "meta_epoch": "2025-12-20T14:26:15.421632",
        "meta_mean_motion": 14.84895685,
        "meta_eccentricity": 0.00105599,
        "meta_inclination": 74.0049,
        "meta_ra_of_asc_node": 151.0723,
        "meta_arg_of_pericenter": 212.9737,
        "meta_mean_anomaly": 252.7308,
        "meta_ephemeris_type": 0,
        "meta_classification_type": "U",
        "meta_norad_cat_id": 34301,
        "meta_element_set_no": 999,
        "meta_rev_at_epoch": 88517,
        "meta_bstar": 0.0019998095,
        "meta_mean_motion_dot": 0.00017041,
        "meta_mean_motion_ddot": 0,
        "tle_line1": "1 34301U 93036MX  25354.60156738  .00017041  00000+0  19998-2 0  9997",
        "tle_line2": "2 34301  74.0049 151.0723 0010559 212.9737 252.7308 14.84895685885171"
      },
      "geometry": {
        "type": "Point",
        "coordinates": [
          -45.14433611618954,
          43.03822916896389
        ]
      }
    },
    {
      "type": "Feature",
      "properties": {
        "norad_id": 34302,
        "name": "COSMOS 2251 DEB",
        "group": "cosmos-2251-debris",
        "lat": -34.76022244785533,
        "lon": 97.21832350030604,
        "alt_km": 709.9961304925937,
        "timestamp": "2025-12-20T22:39:11.018947+00:00",
        "meta_object_name": "COSMOS 2251 DEB",
        "meta_object_id": "1993-036MY",
        "meta_epoch": "2025-12-20T09:46:23.609280",
        "meta_mean_motion": 14.39357272,
        "meta_eccentricity": 0.00792087,
        "meta_inclination": 74.178,
        "meta_ra_of_asc_node": 109.5496,
        "meta_arg_of_pericenter": 322.6403,
        "meta_mean_anomaly": 101.4092,
        "meta_ephemeris_type": 0,
        "meta_classification_type": "U",
        "meta_norad_cat_id": 34302,
        "meta_element_set_no": 999,
        "meta_rev_at_epoch": 87831,
        "meta_bstar": 0.00042676831,
        "meta_mean_motion_dot": 1.35e-05,
        "meta_mean_motion_ddot": 0,
        "tle_line1": "1 34302U 93036MY  25354.40721770  .00001350  00000+0  42677-3 0  9997",
        "tle_line2": "2 34302  74.1780 109.5496 0079208 322.6403 101.4092 14.39357272878318"
      },
      "geometry": {
        "type": "Point",
        "coordinates": [
          97.21832350030604,
          -34.76022244785533
        ]
      }
    },
    {
      "type": "Feature",
      "properties": {
        "norad_id": 34303,
        "name": "COSMOS 2251 DEB",
        "group": "cosmos-2251-debris",
        "lat": -50.51664867167319,
        "lon": 112.86298425598957,
        "alt_km": 813.0663355095085,
        "timestamp": "2025-12-20T22:39:11.018956+00:00",
        "meta_object_name": "COSMOS 2251 DEB",
        "meta_object_id": "1993-036MZ",
        "meta_epoch": "2025-12-20T12:29:22.997184",
        "meta_mean_motion": 14.54547209,
        "meta_eccentricity": 0.01353957,
        "meta_inclination": 74.006,
        "meta_ra_of_asc_node": 273.2914,
        "meta_arg_of_pericenter": 49.6833,
        "meta_mean_anomaly": 127.2213,
        "meta_ephemeris_type": 0,
        "meta_classification_type": "U",
        "meta_norad_cat_id": 34303,
        "meta_element_set_no": 999,
        "meta_rev_at_epoch": 88075,
        "meta_bstar": 0.00097638867,
        "meta_mean_motion_dot": 4.68e-05,
        "meta_mean_motion_ddot": 0,
        "tle_line1": "1 34303U 93036MZ  25354.52040506  .00004680  00000+0  97639-3 0  9999",
        "tle_line2": "2 34303  74.0060 273.2914 0135395  49.6833 127.2213 14.54547209880756"
      },
      "geometry": {
        "type": "Point",
        "coordinates": [
          112.86298425598957,
          -50.51664867167319
        ]
      }
    },
    {
      "type": "Feature",
      "properties": {
        "norad_id": 34304,
        "name": "COSMOS 2251 DEB",
        "group": "cosmos-2251-debris",
        "lat": -32.74472068035105,
        "lon": -61.914656374349256,
        "alt_km": 690.5125020387977,
        "timestamp": "2025-12-20T22:39:11.018965+00:00",
        "meta_object_name": "COSMOS 2251 DEB",
        "meta_object_id": "1993-036NA",
        "meta_epoch": "2025-12-20T10:15:49.586400",
        "meta_mean_motion": 14.37926838,
        "meta_eccentricity": 0.01290771,
        "meta_inclination": 74.0134,
        "meta_ra_of_asc_node": 108.4134,
        "meta_arg_of_pericenter": 244.658,
        "meta_mean_anomaly": 179.0419,
        "meta_ephemeris_type": 0,
        "meta_classification_type": "U",
        "meta_norad_cat_id": 34304,
        "meta_element_set_no": 999,
        "meta_rev_at_epoch": 87407,
        "meta_bstar": 0.0010769113,
        "meta_mean_motion_dot": 3.555e-05,
        "meta_mean_motion_ddot": 0,
        "tle_line1": "1 34304U 93036NA  25354.42765725  .00003555  00000+0  10769-2 0  9994",
        "tle_line2": "2 34304  74.0134 108.4134 0129077 244.6580 179.0419 14.37926838874079"
      },
      "geometry": {
        "type": "Point",
        "coordinates": [
          -61.914656374349256,
          -32.74472068035105
        ]
      }
    },
    {
      "type": "Feature",
      "properties": {
        "norad_id": 34307,
        "name": "COSMOS 2251 DEB",
        "group": "cosmos-2251-debris",
        "lat": 62.603239093349565,
        "lon": 86.47074700849272,
        "alt_km": 769.7011040700754,
        "timestamp": "2025-12-20T22:39:11.018974+00:00",
        "meta_object_name": "COSMOS 2251 DEB",
        "meta_object_id": "1993-036ND",
        "meta_epoch": "2025-12-20T02:41:56.366016",
        "meta_mean_motion": 13.54331363,
        "meta_eccentricity": 0.03918856,
        "meta_inclination": 74.0535,
        "meta_ra_of_asc_node": 301.2844,
        "meta_arg_of_pericenter": 130.6068,
        "meta_mean_anomaly": 251.0175,
        "meta_ephemeris_type": 0,
        "meta_classification_type": "U",
        "meta_norad_cat_id": 34307,
        "meta_element_set_no": 999,
        "meta_rev_at_epoch": 82962,
        "meta_bstar": 0.00052792829,
        "meta_mean_motion_dot": 5.69e-06,
        "meta_mean_motion_ddot": 0,
        "tle_line1": "1 34307U 93036ND  25354.11245794  .00000569  00000+0  52793-3 0  9998",
        "tle_line2": "2 34307  74.0535 301.2844 0391885 130.6068 251.0175 13.54331363829623"
      },
      "geometry": {
        "type": "Point",
        "coordinates": [
          86.47074700849272,
          62.603239093349565
        ]
      }
    },
    {
      "type": "Feature",
      "properties": {
        "norad_id": 34313,
        "name": "COSMOS 2251 DEB",
        "group": "cosmos-2251-debris",
        "lat": 68.7762858992068,
        "lon": 60.478967638205795,
        "alt_km": 490.8762311793025,
        "timestamp": "2025-12-20T22:39:11.018983+00:00",
        "meta_object_name": "COSMOS 2251 DEB",
        "meta_object_id": "1993-036NK",
        "meta_epoch": "2025-12-20T06:24:19.448928",
        "meta_mean_motion": 15.20313142,
        "meta_eccentricity": 0.00119835,
        "meta_inclination": 73.9715,
        "meta_ra_of_asc_node": 289.6581,
        "meta_arg_of_pericenter": 70.2926,
        "meta_mean_anomaly": 289.9563,
        "meta_ephemeris_type": 0,
        "meta_classification_type": "U",
        "meta_norad_cat_id": 34313,
        "meta_element_set_no": 999,
        "meta_rev_at_epoch": 89179,
        "meta_bstar": 0.0028548581,
        "meta_mean_motion_dot": 0.0006269,
        "meta_mean_motion_ddot": 0,
        "tle_line1": "1 34313U 93036NK  25354.26689177  .00062690  00000+0  28549-2 0  9992",
        "tle_line2": "2 34313  73.9715 289.6581 0011983  70.2926 289.9563 15.20313142891793"
      },
      "geometry": {
        "type": "Point",
        "coordinates": [
          60.478967638205795,
          68.7762858992068
        ]
      }
    }
  ]
}